[{"OBJECT_NAME":"ION SCV-004","OBJECT_ID":"2022-002K","EPOCH":"2026-03-09T16:32:03.244416","MEAN_MOTION":15.29369331,"ECCENTRICITY":0.00072157,"INCLINATION":97.2961,"RA_OF_ASC_NODE":128.2294,"ARG_OF_PERICENTER":1.6783,"MEAN_ANOMALY":358.448,"EPHEMERIS_TYPE":0,"CLASSIFICATION_TYPE":"U","NORAD_CAT_ID":50993,"ELEMENT_SET_NO":999,"REV_AT_EPOCH":23008,"BSTAR":0.00023198467,"MEAN_MOTION_DOT":6.538e-5,"MEAN_MOTION_DDOT":0},{"OBJECT_NAME":"STARLINK-30550","OBJECT_ID":"2023-156T","EPOCH":"2026-03-09T02:07:30.890208","MEAN_MOTION":15.30196537,"ECCENTRICITY":9.237e-5,"INCLINATION":53.1626,"RA_OF_ASC_NODE":4.1379,"ARG_OF_PERICENTER":116.9815,"MEAN_ANOMALY":243.128,"EPHEMERIS_TYPE":0,"CLASSIFICATION_TYPE":"U","NORAD_CAT_ID":58045,"ELEMENT_SET_NO":999,"REV_AT_EPOCH":13728,"BSTAR":1.1123747e-5,"MEAN_MOTION_DOT":-2.9e-7,"MEAN_MOTION_DDOT":0}]
